{
    "links": {
        "self": "http://www.neowsapp.com/rest/v1/neo/3465716?api_key=iIulBulltgU6a56xZRHN4H3l9WmuAYTsLGpBGhQ2"
    },
    "id": "3465716",
    "neo_reference_id": "3465716",
    "name": "(2009 PA3)",
    "designation": "2009 PA3",
    "nasa_jpl_url": "http://ssd.jpl.nasa.gov/sbdb.cgi?sstr=3465716",
    "absolute_magnitude_h": 25.3,
    "estimated_diameter": {
        "kilometers": {
            "estimated_diameter_min": 0.0231502122,
            "estimated_diameter_max": 0.0517654482
        },
        "meters": {
            "estimated_diameter_min": 23.150212221,
            "estimated_diameter_max": 51.7654482198
        },
        "miles": {
            "estimated_diameter_min": 0.0143848705,
            "estimated_diameter_max": 0.0321655483
        },
        "feet": {
            "estimated_diameter_min": 75.9521422633,
            "estimated_diameter_max": 169.8341531374
        }
    },
    "is_potentially_hazardous_asteroid": false,
    "close_approach_data": [
        {
            "close_approach_date": "2009-08-10",
            "close_approach_date_full": "2009-Aug-10 06:17",
            "epoch_date_close_approach": 1249885020000,
            "relative_velocity": {
                "kilometers_per_second": "12.811477368",
                "kilometers_per_hour": "46121.3185249217",
                "miles_per_hour": "28657.9937245548"
            },
            "miss_distance": {
                "astronomical": "0.0100693523",
                "lunar": "3.9169780447",
                "kilometers": "1506353.656359601",
                "miles": "936004.7589444538"
            },
            "orbiting_body": "Earth"
        }
    ],
    "orbital_data": {
        "orbit_id": "6",
        "orbit_determination_date": "2017-04-06 09:00:16",
        "first_observation_date": "2009-08-15",
        "last_observation_date": "2009-08-16",
        "data_arc_in_days": 1,
        "observations_used": 7,
        "orbit_uncertainty": "9",
        "minimum_orbit_intersection": ".00997466",
        "jupiter_tisserand_invariant": "4.684",
        "epoch_osculation": "2455059.5",
        "eccentricity": ".4385066776943016",
        "semi_major_axis": "1.383177286922145",
        "inclination": "5.704449077590383",
        "ascending_node_longitude": "132.045380080584",
        "orbital_period": "594.1761290159664",
        "perihelion_distance": ".7766448101716972",
        "perihelion_argument": "109.3437707478399",
        "aphelion_distance": "1.989709763672592",
        "perihelion_time": "2455000.386729976793",
        "mean_anomaly": "35.81560444644298",
        "mean_motion": ".6058809541813928",
        "equinox": "J2000",
        "orbit_class": {
            "orbit_class_type": "APO",
            "orbit_class_description": "Near-Earth asteroid orbits which cross the Earth’s orbit similar to that of 1862 Apollo",
            "orbit_class_range": "a (semi-major axis) > 1.0 AU; q (perihelion) < 1.017 AU"
        }
    },
    "is_sentry_object": false
}